GLOBALSTAR M075 [+]     
1 37192U 10054E   24093.88837427 -.00000100  00000+0  21388-4 0  9994
2 37192  51.9940  82.1486 0000423  64.9564 299.6622 12.62272041620779
GLOBALSTAR M073 [+]     
1 37193U 10054F   24093.12777076 -.00000078  00000+0  14317-3 0  9992
2 37193  52.0089 357.9485 0000766  82.3457  64.9022 12.62263043622134
GLOBALSTAR M083 [+]     
1 37739U 11033A   24093.90379074 -.00000059  00000+0  25068-3 0  9992
2 37739  51.9860 304.9212 0000690  73.6712 301.9088 12.62267594591617
GLOBALSTAR M088 [+]     
1 37740U 11033B   24093.63927127 -.00000091  00000+0  68874-4 0  9991
2 37740  51.9724 211.5855 0000599  93.1525 280.4121 12.62266639586769
GLOBALSTAR M091 [+]     
1 37741U 11033C   24093.49397596 -.00000090  00000+0  79303-4 0  9995
2 37741  51.9987 174.7953 0000406  78.9035 294.3617 12.62261257587535
GLOBALSTAR M085 [+]     
1 37742U 11033D   24093.42213948 -.00000103  00000+0  63586-5 0  9999
2 37742  51.9846 126.4433 0000329  62.4365  43.4838 12.62269306588032
GLOBALSTAR M081 [+]     
1 37743U 11033E   24093.34903863 -.00000094  00000+0  53348-4 0  9996
2 37743  51.9938 129.1806 0000490  67.2353 306.6454 12.62263783588174
GLOBALSTAR M089 [+]     
1 37744U 11033F   24093.74025171 -.00000093  00000+0  59094-4 0  9991
2 37744  51.9922  82.2986 0000629 106.9302  64.7649 12.62261584589317
